SWARM A                 
1 39452U 13067B   26156.99202285  .00013506  00000+0  23429-3 0  9994
2 39452  87.3328  60.3994 0003022  91.0415 269.1192 15.50724591704510
SWARM C                 
1 39453U 13067C   26156.99191311  .00013744  00000+0  23840-3 0  9993
2 39453  87.3326  58.9808 0002995  90.6948 269.4656 15.50727048704473
BRITE-CA1 (TORONTO)     
1 40020U 14033L   26156.82691227  .00000812  00000+0  12974-3 0  9990
2 40020  97.9727 285.9652 0077578 313.9957  45.4872 14.72661285640548
OCO 2                   
1 40059U 14035A   26156.89363825  .00000498  00000+0  12053-3 0  9999
2 40059  98.2015  98.3590 0001470  87.4511 272.6856 14.57101984634400
BRITE-PL2 (HEWELIUSZ)   
1 40119U 14049B   26157.05865897  .00003200  00000+0  30083-3 0  9993
2 40119  97.9087 268.9740 0015052 142.1007 218.1275 14.94553985639783
MMS 1                   
1 40482U 15011A   26157.33348380 -.00000263  00000+0  00000+0 0  9999
2 40482  72.1598 348.9010 8345029 167.0796 271.8380  0.28341050  1388
MMS 2                   
1 40483U 15011B   26157.33348380 -.00000263  00000+0  00000+0 0  9990
2 40483  72.1618 348.9036 8345982 167.0825 271.8430  0.28336501  1382
MMS 3                   
1 40484U 15011C   26157.33348380 -.00000262  00000+0  00000+0 0  9990
2 40484  72.1648 348.9081 8345176 167.0770 271.8397  0.28336471  1388
MMS 4                   
1 40485U 15011D   26157.33348380 -.00000262  00000+0  00000+0 0  9991
2 40485  72.1611 348.9038 8344773 167.0847 271.8280  0.28336467  1384
ASTROSAT                
1 40930U 15052A   26156.85672535  .00001793  00000+0  13635-3 0  9990
2 40930   5.9957 236.9204 0008467 236.6471 123.2846 14.82488567578147
DAMPE                   
1 41173U 15078A   26157.25184566  .00001827  00000+0  63941-4 0  9999
2 41173  97.4560 162.6657 0013596 110.8100 249.4599 15.30758056582879
PISAT                   
1 41784U 16059B   26156.90486528  .00001096  00000+0  19424-3 0  9995
2 41784  97.8178 157.8427 0027650 240.1718 119.6739 14.68964111518082
HXMT (HUIYAN)           
1 42758U 17034A   26157.28060766  .00005795  00000+0  28492-3 0  9990
2 42758  43.0132 243.7698 0030192  75.0475 285.3713 15.18396034496001
FLYING LAPTOP           
1 42831U 17042G   26157.25340316  .00003816  00000+0  30174-3 0  9992
2 42831  97.4648 313.2109 0018992 157.4267 202.7797 15.01071612484811
ZHANGHENG 1-01 (CSES-1) 
1 43194U 18015C   26157.28214267  .00009035  00000+0  41293-3 0  9997
2 43194  97.6867 322.7249 0017275 307.3086  52.6574 15.20670323462981
SALSAT                  
1 46495U 20068K   26156.50196863  .00008465  00000+0  29742-3 0  9991
2 46495  97.8853 158.8572 0009210 354.5258   5.5879 15.29623212313576
IXPE                    
1 49954U 21121A   26157.25002315  .00012148  00000+0  66672-3 0  9992
2 49954   0.2319  39.7714 0007525 271.9119 175.4760 15.10149659  5880
SMILE                   
1 69123U 26109A   26144.65318427 -.00001976  00000+0 -42379-3 0  9994
2 69123  70.0007 229.2745 0009123 259.5159 100.4951 14.57062785   802
