OBJECT_NAME,OBJECT_ID,EPOCH,MEAN_MOTION,ECCENTRICITY,INCLINATION,RA_OF_ASC_NODE,ARG_OF_PERICENTER,MEAN_ANOMALY,EPHEMERIS_TYPE,CLASSIFICATION_TYPE,NORAD_CAT_ID,ELEMENT_SET_NO,REV_AT_EPOCH,BSTAR,MEAN_MOTION_DOT,MEAN_MOTION_DDOT
SWARM A,2013-067B,2026-06-05T23:48:30.774240,15.50724591,.00030227,87.3328,60.3994,91.0415,269.1192,0,U,39452,999,70451,.23429444E-3,.13506E-3,0
SWARM C,2013-067C,2026-06-05T23:48:21.292704,15.50727048,.00029954,87.3326,58.9808,90.6948,269.4656,0,U,39453,999,70447,.2384029E-3,.13744E-3,0
BRITE-CA1 (TORONTO),2014-033L,2026-06-05T19:50:45.220128,14.72661285,.0077578,97.9727,285.9652,313.9957,45.4872,0,U,40020,999,64054,.12974E-3,.812E-5,0
OCO 2,2014-035A,2026-06-05T21:26:50.344800,14.57101984,.00014709,98.2015,98.3590,87.4511,272.6856,0,U,40059,999,63440,.12053475E-3,.498E-5,0
BRITE-PL2 (HEWELIUSZ),2014-049B,2026-06-06T01:24:28.135008,14.94553985,.00150523,97.9087,268.9740,142.1007,218.1275,0,U,40119,999,63978,.30083452E-3,.32E-4,0
MMS 1,2015-011A,2026-06-06T08:00:13.000320,0.28341050,.83450291,72.1598,348.9010,167.0796,271.8380,0,U,40482,999,138,0,-.263E-5,0
MMS 2,2015-011B,2026-06-06T08:00:13.000320,0.28336501,.83459828,72.1618,348.9036,167.0825,271.8430,0,U,40483,999,138,0,-.263E-5,0
MMS 3,2015-011C,2026-06-06T08:00:13.000320,0.28336471,.83451762,72.1648,348.9081,167.0770,271.8397,0,U,40484,999,138,0,-.262E-5,0
MMS 4,2015-011D,2026-06-06T08:00:13.000320,0.28336467,.83447733,72.1611,348.9038,167.0847,271.8280,0,U,40485,999,138,0,-.262E-5,0
ASTROSAT,2015-052A,2026-06-05T20:33:41.070240,14.82488567,.00084673,5.9957,236.9204,236.6471,123.2846,0,U,40930,999,57814,.1363511E-3,.1793E-4,0
DAMPE,2015-078A,2026-06-06T06:02:39.465024,15.30758056,.00135966,97.4560,162.6657,110.8100,249.4599,0,U,41173,999,58287,.639412E-4,.1827E-4,0
PISAT,2016-059B,2026-06-05T21:43:00.360192,14.68964111,.00276505,97.8178,157.8427,240.1718,119.6739,0,U,41784,999,51808,.19423589E-3,.1096E-4,0
HXMT (HUIYAN),2017-034A,2026-06-06T06:44:04.501824,15.18396034,.00301924,43.0132,243.7698,75.0475,285.3713,0,U,42758,999,49600,.28491794E-3,.5795E-4,0
FLYING LAPTOP,2017-042G,2026-06-06T06:04:54.033024,15.01071612,.00189929,97.4648,313.2109,157.4267,202.7797,0,U,42831,999,48481,.30174437E-3,.3816E-4,0
ZHANGHENG 1-01 (CSES-1),2018-015C,2026-06-06T06:46:17.126688,15.20670323,.0017275,97.6867,322.7249,307.3086,52.6574,0,U,43194,999,46298,.41292781E-3,.9035E-4,0
SALSAT,2020-068K,2026-06-05T12:02:50.089632,15.29623212,.000921,97.8853,158.8572,354.5258,5.5879,0,U,46495,999,31357,.29741857E-3,.8465E-4,0
IXPE,2021-121A,2026-06-06T06:00:02.000160,15.10149659,.00075256,0.2319,39.7714,271.9119,175.4760,0,U,49954,999,588,.66671788E-3,.12148E-3,0
SMILE,2026-109A,2026-05-24T15:40:35.120928,14.57062785,.00091232,70.0007,229.2745,259.5159,100.4951,0,U,69123,999,80,-.42378883E-3,-.1976E-4,0
